{"type": "FeatureCollection", "features": [ {"type": "Feature", "properties": {"norad_id": 41774, "name": "SKYSAT-C3", "group": "resource", "lat": 75.53533170089906, "lon": -140.03032196461382, "alt_km": 426.5276311715188, "timestamp": "2025-12-03T15:48:02.759079+00:00", "meta": {"OBJECT_NAME": "SKYSAT-C3", "OBJECT_ID": "2016-058E", "EPOCH": "2025-12-03T01:21:27.925344", "MEAN_MOTION": 15.438754, "ECCENTRICITY": 0.00013715, "INCLINATION": 96.9314, "RA_OF_ASC_NODE": 11.2574, "ARG_OF_PERICENTER": 99.3363, "MEAN_ANOMALY": 260.8041, "EPHEMERIS_TYPE": 0, "CLASSIFICATION_TYPE": "U", "NORAD_CAT_ID": 41774, "ELEMENT_SET_NO": 999, "REV_AT_EPOCH": 51576, "BSTAR": 0.0005576321, "MEAN_MOTION_DOT": 0.00025275, "MEAN_MOTION_DDOT": 0}, "tle": {"line1": "1 41774U 16058E   25337.05657321  .00025275  00000+0  55763-3 0  9991", "line2": "2 41774  96.9314  11.2574 0001371  99.3363 260.8041 15.43875400515764"}}, "geometry": {"type": "Point", "coordinates": [-140.03032196461382, 75.53533170089906]}}, {"type": "Feature", "properties": {"norad_id": 41785, "name": "ALSAT 1B", "group": "resource", "lat": 25.707311892901842, "lon": 173.61480050444294, "alt_km": 647.0362360492582, "timestamp": "2025-12-03T15:48:02.759088+00:00", "meta": {"OBJECT_NAME": "ALSAT 1B", "OBJECT_ID": "2016-059C", "EPOCH": "2025-12-03T08:34:44.274432", "MEAN_MOTION": 14.72059434, "ECCENTRICITY": 0.00103779, "INCLINATION": 97.7819, "RA_OF_ASC_NODE": 349.552, "ARG_OF_PERICENTER": 130.4189, "MEAN_ANOMALY": 229.7926, "EPHEMERIS_TYPE": 0, "CLASSIFICATION_TYPE": "U", "NORAD_CAT_ID": 41785, "ELEMENT_SET_NO": 999, "REV_AT_EPOCH": 49176, "BSTAR": 0.00012100786, "MEAN_MOTION_DOT": 7.14e-06, "MEAN_MOTION_DDOT": 0}, "tle": {"line1": "1 41785U 16059C   25337.35745688  .00000714  00000+0  12101-3 0  9991", "line2": "2 41785  97.7819 349.5520 0010377 130.4189 229.7926 14.72059434491763"}}, "geometry": {"type": "Point", "coordinates": [173.61480050444294, 25.707311892901842]}}, {"type": "Feature", "properties": {"norad_id": 41787, "name": "PATHFINDER 1", "group": "resource", "lat": 27.110930888300988, "lon": -23.177919182943782, "alt_km": 665.3790518613314, "timestamp": "2025-12-03T15:48:02.759097+00:00", "meta": {"OBJECT_NAME": "PATHFINDER 1", "OBJECT_ID": "2016-059E", "EPOCH": "2025-12-03T05:51:22.923648", "MEAN_MOTION": 14.6729428, "ECCENTRICITY": 0.00299578, "INCLINATION": 97.8139, "RA_OF_ASC_NODE": 340.4584, "ARG_OF_PERICENTER": 110.0245, "MEAN_ANOMALY": 250.419, "EPHEMERIS_TYPE": 0, "CLASSIFICATION_TYPE": "U", "NORAD_CAT_ID": 41787, "ELEMENT_SET_NO": 999, "REV_AT_EPOCH": 49097, "BSTAR": 0.00021981042, "MEAN_MOTION_DOT": 1.202e-05, "MEAN_MOTION_DDOT": 0}, "tle": {"line1": "1 41787U 16059E   25337.24401532  .00001202  00000+0  21981-3 0  9997", "line2": "2 41787  97.8139 340.4584 0029957 110.0245 250.4190 14.67294280490972"}}, "geometry": {"type": "Point", "coordinates": [-23.177919182943782, 27.110930888300988]}}, {"type": "Feature", "properties": {"norad_id": 41790, "name": "SCATSAT 1", "group": "resource", "lat": 0.9399890903053798, "lon": 34.08067654402601, "alt_km": 671.3667385751314, "timestamp": "2025-12-03T15:48:02.759106+00:00", "meta": {"OBJECT_NAME": "SCATSAT 1", "OBJECT_ID": "2016-059H", "EPOCH": "2025-12-03T02:48:20.619648", "MEAN_MOTION": 14.78880649, "ECCENTRICITY": 0.00557828, "INCLINATION": 98.148, "RA_OF_ASC_NODE": 33.6671, "ARG_OF_PERICENTER": 158.5584, "MEAN_ANOMALY": 201.7981, "EPHEMERIS_TYPE": 0, "CLASSIFICATION_TYPE": "U", "NORAD_CAT_ID": 41790, "ELEMENT_SET_NO": 999, "REV_AT_EPOCH": 7260, "BSTAR": 0.00033695932, "MEAN_MOTION_DOT": 2.491e-05, "MEAN_MOTION_DDOT": 0}, "tle": {"line1": "1 41790U 16059H   25337.11690532  .00002491  00000+0  33696-3 0  9994", "line2": "2 41790  98.1480  33.6671 0055782 158.5584 201.7981 14.78880649 72600"}}, "geometry": {"type": "Point", "coordinates": [34.08067654402601, 0.9399890903053798]}}, {"type": "Feature", "properties": {"norad_id": 41875, "name": "GOKTURK 1A", "group": "resource", "lat": -71.21253114030553, "lon": 25.253130123453488, "alt_km": 692.4227385796512, "timestamp": "2025-12-03T15:48:02.759115+00:00", "meta": {"OBJECT_NAME": "GOKTURK 1A", "OBJECT_ID": "2016-073A", "EPOCH": "2025-12-03T08:04:51.250656", "MEAN_MOTION": 14.62761321, "ECCENTRICITY": 0.00012389, "INCLINATION": 98.1431, "RA_OF_ASC_NODE": 229.8273, "ARG_OF_PERICENTER": 81.9133, "MEAN_ANOMALY": 278.2209, "EPHEMERIS_TYPE": 0, "CLASSIFICATION_TYPE": "U", "NORAD_CAT_ID": 41875, "ELEMENT_SET_NO": 999, "REV_AT_EPOCH": 48019, "BSTAR": 0.00017454614, "MEAN_MOTION_DOT": 8.43e-06, "MEAN_MOTION_DDOT": 0}, "tle": {"line1": "1 41875U 16073A   25337.33670429  .00000843  00000+0  17455-3 0  9995", "line2": "2 41875  98.1431 229.8273 0001238  81.9133 278.2209 14.62761321480190"}}, "geometry": {"type": "Point", "coordinates": [25.253130123453488, -71.21253114030553]}}, {"type": "Feature", "properties": {"norad_id": 41877, "name": "RESOURCESAT-2A", "group": "resource", "lat": -25.369095822575428, "lon": -136.6342039501219, "alt_km": 825.6123148030883, "timestamp": "2025-12-03T15:48:02.759124+00:00", "meta": {"OBJECT_NAME": "RESOURCESAT-2A", "OBJECT_ID": "2016-074A", "EPOCH": "2025-12-03T08:04:47.202816", "MEAN_MOTION": 14.21592935, "ECCENTRICITY": 0.0001171, "INCLINATION": 98.7768, "RA_OF_ASC_NODE": 47.247, "ARG_OF_PERICENTER": 302.1288, "MEAN_ANOMALY": 57.9775, "EPHEMERIS_TYPE": 0, "CLASSIFICATION_TYPE": "U", "NORAD_CAT_ID": 41877, "ELEMENT_SET_NO": 999, "REV_AT_EPOCH": 46647, "BSTAR": 0.00013819944, "MEAN_MOTION_DOT": 2.59e-06, "MEAN_MOTION_DDOT": 0}, "tle": {"line1": "1 41877U 16074A   25337.33665744  .00000259  00000+0  13820-3 0  9995", "line2": "2 41877  98.7768  47.2470 0001171 302.1288  57.9775 14.21592935466470"}}, "geometry": {"type": "Point", "coordinates": [-136.6342039501219, -25.369095822575428]}}, {"type": "Feature", "properties": {"norad_id": 41948, "name": "CARTOSAT-2D", "group": "resource", "lat": -81.694509275731, "lon": 151.7607754396169, "alt_km": 514.0253570265095, "timestamp": "2025-12-03T15:48:02.759133+00:00", "meta": {"OBJECT_NAME": "CARTOSAT-2D", "OBJECT_ID": "2017-008A", "EPOCH": "2025-12-03T08:18:34.823232", "MEAN_MOTION": 15.19341765, "ECCENTRICITY": 0.00049322, "INCLINATION": 97.4402, "RA_OF_ASC_NODE": 34.9863, "ARG_OF_PERICENTER": 197.5477, "MEAN_ANOMALY": 162.5588, "EPHEMERIS_TYPE": 0, "CLASSIFICATION_TYPE": "U", "NORAD_CAT_ID": 41948, "ELEMENT_SET_NO": 999, "REV_AT_EPOCH": 48784, "BSTAR": 2.988038e-06, "MEAN_MOTION_DOT": -4e-08, "MEAN_MOTION_DDOT": 0}, "tle": {"line1": "1 41948U 17008A   25337.34623638 -.00000004  00000+0  29880-5 0  9993", "line2": "2 41948  97.4402  34.9863 0004932 197.5477 162.5588 15.19341765487843"}}, "geometry": {"type": "Point", "coordinates": [151.7607754396169, -81.694509275731]}}, {"type": "Feature", "properties": {"norad_id": 42063, "name": "SENTINEL-2B", "group": "resource", "lat": -52.63197620812589, "lon": -141.16085712754517, "alt_km": 796.5453245964791, "timestamp": "2025-12-03T15:48:02.759142+00:00", "meta": {"OBJECT_NAME": "SENTINEL-2B", "OBJECT_ID": "2017-013A", "EPOCH": "2025-12-03T07:59:59.703360", "MEAN_MOTION": 14.3080992, "ECCENTRICITY": 0.00011189, "INCLINATION": 98.5727, "RA_OF_ASC_NODE": 49.911, "ARG_OF_PERICENTER": 98.3201, "MEAN_ANOMALY": 261.8109, "EPHEMERIS_TYPE": 0, "CLASSIFICATION_TYPE": "U", "NORAD_CAT_ID": 42063, "ELEMENT_SET_NO": 999, "REV_AT_EPOCH": 45663, "BSTAR": 0.00011617956, "MEAN_MOTION_DOT": 2.61e-06, "MEAN_MOTION_DDOT": 0}, "tle": {"line1": "1 42063U 17013A   25337.33332990  .00000261  00000+0  11618-3 0  9997", "line2": "2 42063  98.5727  49.9110 0001118  98.3201 261.8109 14.30809920456630"}}, "geometry": {"type": "Point", "coordinates": [-141.16085712754517, -52.63197620812589]}}, {"type": "Feature", "properties": {"norad_id": 42767, "name": "CARTOSAT-2E", "group": "resource", "lat": 3.643484886581918, "lon": -144.15856907758962, "alt_km": 511.47301753264674, "timestamp": "2025-12-03T15:48:02.759151+00:00", "meta": {"OBJECT_NAME": "CARTOSAT-2E", "OBJECT_ID": "2017-036C", "EPOCH": "2025-12-03T08:42:14.675040", "MEAN_MOTION": 15.19167038, "ECCENTRICITY": 0.00023086, "INCLINATION": 97.4578, "RA_OF_ASC_NODE": 35.0716, "ARG_OF_PERICENTER": 286.7329, "MEAN_ANOMALY": 73.3652, "EPHEMERIS_TYPE": 0, "CLASSIFICATION_TYPE": "U", "NORAD_CAT_ID": 42767, "ELEMENT_SET_NO": 999, "REV_AT_EPOCH": 46841, "BSTAR": 0.00035977836, "MEAN_MOTION_DOT": 7.499e-05, "MEAN_MOTION_DDOT": 0}, "tle": {"line1": "1 42767U 17036C   25337.36266985  .00007499  00000+0  35978-3 0  9991", "line2": "2 42767  97.4578  35.0716 0002308 286.7329  73.3652 15.19167038468410"}}, "geometry": {"type": "Point", "coordinates": [-144.15856907758962, 3.643484886581918]}}, {"type": "Feature", "properties": {"norad_id": 42920, "name": "FORMOSAT-5", "group": "resource", "lat": -62.31893479183937, "lon": 68.20549921412511, "alt_km": 723.1769275627339, "timestamp": "2025-12-03T15:48:02.759162+00:00", "meta": {"OBJECT_NAME": "FORMOSAT-5", "OBJECT_ID": "2017-049A", "EPOCH": "2025-12-03T07:49:02.255520", "MEAN_MOTION": 14.50995982, "ECCENTRICITY": 0.00103237, "INCLINATION": 98.2463, "RA_OF_ASC_NODE": 51.8311, "ARG_OF_PERICENTER": 326.9681, "MEAN_ANOMALY": 33.0868, "EPHEMERIS_TYPE": 0, "CLASSIFICATION_TYPE": "U", "NORAD_CAT_ID": 42920, "ELEMENT_SET_NO": 999, "REV_AT_EPOCH": 43827, "BSTAR": 0.00011202044, "MEAN_MOTION_DOT": 3.99e-06, "MEAN_MOTION_DDOT": 0}, "tle": {"line1": "1 42920U 17049A   25337.32572055  .00000399  00000+0  11202-3 0  9996", "line2": "2 42920  98.2463  51.8311 0010323 326.9681  33.0868 14.50995982438278"}}, "geometry": {"type": "Point", "coordinates": [68.20549921412511, -62.31893479183937]}}]}